NORAD_CAT_ID,OBJECT_NAME,OBJECT_TYPE,EPOCH,MEAN_MOTION,ECCENTRICITY,INCLINATION,RA_OF_ASC_NODE,ARG_OF_PERICENTER,MEAN_ANOMALY,BSTAR,MEAN_MOTION_DOT,MEAN_MOTION_DDOT,TLE_LINE0,TLE_LINE1,TLE_LINE2,SEMIMAJOR_AXIS,PERIOD,APOGEE,PERIGEE,DECAYED
51751.0,STARLINK-3506,PAYLOAD,2024-02-11 04:35:39,15.0883988,0.0001714,53.218,109.6733,69.2744,290.8432,5.2454e-05,5.47e-06,0.0,0 STARLINK-3506,1 51751U 22016AP  24042.19142523  .00000547  00000-0  52454-4 0  9999,2 51751  53.2180 109.6733 0001714  69.2744 290.8432 15.08839880110464,6917.881,95.438,540.931,538.56,0.0
51751.0,STARLINK-3506,PAYLOAD,2024-02-11 10:57:11,15.08847981,0.0001598,53.2179,108.4818,75.6185,284.4985,4.414e-05,4.15e-06,0.0,0 STARLINK-3506,1 51751U 22016AP  24042.45637984  .00000415  00000-0  44140-4 0  9995,2 51751  53.2179 108.4818 0001598  75.6185 284.4985 15.08847981109385,6917.856,95.437,540.826,538.616,0.0
51751.0,STARLINK-3506,PAYLOAD,2024-02-12 09:12:34,15.08845384,0.0001673,53.2186,104.3217,96.7835,263.3348,0.00010322,1.355e-05,0.0,0 STARLINK-3506,1 51751U 22016AP  24043.38373749  .00001355  00000-0  10322-3 0  9992,2 51751  53.2186 104.3217 0001673  96.7835 263.3348 15.08845384109521,6917.864,95.437,540.886,538.572,0.0
51751.0,STARLINK-3506,PAYLOAD,2024-02-13 04:17:13,15.08834262,0.0001766,53.2182,100.7524,105.7666,254.3521,-2.7619e-05,-7.28e-06,0.0,0 STARLINK-3506,1 51751U 22016AP  24044.17862931 -.00000728  00000-0 -27619-4 0  9999,2 51751  53.2182 100.7524 0001766 105.7666 254.3521 15.08834262110768,6917.898,95.438,540.985,538.541,0.0
51751.0,STARLINK-3506,PAYLOAD,2024-02-13 10:38:46,15.08833335,0.0001411,53.2165,99.563,96.106,264.0093,-9.3704e-05,-1.779e-05,0.0,0 STARLINK-3506,1 51751U 22016AP  24044.44359335 -.00001779  00000-0 -93704-4 0  9993,2 51751  53.2165  99.5630 0001411  96.1060 264.0093 15.08833335109681,6917.901,95.438,540.742,538.79,0.0
51751.0,STARLINK-3506,PAYLOAD,2024-02-13 20:11:05,15.08836017,0.0001313,53.217,97.7786,103.5265,256.5874,-4.944e-06,-3.67e-06,0.0,0 STARLINK-3506,1 51751U 22016AP  24044.84103067 -.00000367  00000-0 -49440-5 0  9997,2 51751  53.2170  97.7786 0001313 103.5265 256.5874 15.08836017109740,6917.893,95.438,540.666,538.849,0.0
51751.0,STARLINK-3506,PAYLOAD,2024-02-14 12:04:55,15.08854532,0.0001341,53.217,94.8045,104.8456,255.2685,0.00016471,2.335e-05,0.0,0 STARLINK-3506,1 51751U 22016AP  24045.50341466  .00002335  00000-0  16471-3 0  9999,2 51751  53.2170  94.8045 0001341 104.8456 255.2685 15.08854532110967,6917.836,95.437,540.629,538.773,0.0
51751.0,STARLINK-3506,PAYLOAD,2024-02-15 10:20:20,15.08830922,0.0001166,53.2169,90.6414,99.5384,260.574,0.00013245,1.82e-05,0.0,0 STARLINK-3506,1 51751U 22016AP  24046.43079642  .00001820  00000-0  13245-3 0  9990,2 51751  53.2169  90.6414 0001166  99.5384 260.5740 15.08830922111109,6917.908,95.438,540.58,538.967,0.0
51751.0,STARLINK-3506,PAYLOAD,2024-02-15 19:52:39,15.08833055,0.0001189,53.216,88.857,81.938,278.1747,3.7076e-05,3.02e-06,0.0,0 STARLINK-3506,1 51751U 22016AP  24046.82823531  .00000302  00000-0  37076-4 0  9990,2 51751  53.2160  88.8570 0001189  81.9380 278.1747 15.08833055110042,6917.902,95.438,540.589,538.944,0.0
51751.0,STARLINK-3506,PAYLOAD,2024-02-16 10:11:07,15.08845739,0.0001405,53.2168,86.1804,81.2842,278.8309,6.5262e-05,7.51e-06,0.0,0 STARLINK-3506,1 51751U 22016AP  24047.42439154  .00000751  00000-0  65262-4 0  9997,2 51751  53.2168  86.1804 0001405  81.2842 278.8309 15.08845739111255,6917.863,95.437,540.7,538.756,0.0
51751.0,STARLINK-3506,PAYLOAD,2024-02-17 08:26:31,15.08842668,0.0001352,53.2165,82.0159,87.5783,272.5364,0.00023164,3.401e-05,0.0,0 STARLINK-3506,1 51751U 22016AP  24048.35175482  .00003401  00000-0  23164-3 0  9990,2 51751  53.2165  82.0159 0001352  87.5783 272.5364 15.08842668111399,6917.872,95.437,540.673,538.802,0.0
51751.0,STARLINK-3506,PAYLOAD,2024-02-17 19:34:13,15.08846094,0.0001428,53.2169,79.9352,85.0251,275.0904,0.00023127,3.395e-05,0.0,0 STARLINK-3506,1 51751U 22016AP  24048.81543306  .00003395  00000-0  23127-3 0  9996,2 51751  53.2169  79.9352 0001428  85.0251 275.0904 15.08846094110349,6917.862,95.437,540.715,538.739,0.0
51751.0,STARLINK-3506,PAYLOAD,2024-02-18 08:17:18,15.08844168,0.0001544,53.217,77.5544,100.1379,259.9787,0.00023119,3.394e-05,0.0,0 STARLINK-3506,1 51751U 22016AP  24049.34535364  .00003394  00000-0  23119-3 0  9990,2 51751  53.2170  77.5544 0001544 100.1379 259.9787 15.08844168110426,6917.868,95.437,540.801,538.665,0.0
51751.0,STARLINK-3506,PAYLOAD,2024-02-19 08:08:05,15.08841957,0.0001621,53.2177,73.0952,96.1002,264.0175,5.5832e-05,6.01e-06,0.0,0 STARLINK-3506,1 51751U 22016AP  24050.33895565  .00000601  00000-0  55832-4 0  9999,2 51751  53.2177  73.0952 0001621  96.1002 264.0175 15.08841957111691,6917.874,95.437,540.861,538.618,0.0
51751.0,STARLINK-3506,PAYLOAD,2024-02-20 01:37:20,15.08832745,0.0001465,53.2178,69.8239,95.8181,264.2978,7.7633e-05,9.48e-06,0.0,0 STARLINK-3506,1 51751U 22016AP  24051.06760108  .00000948  00000-0  77633-4 0  9991,2 51751  53.2178  69.8239 0001465  95.8181 264.2978 15.08832745111804,6917.903,95.438,540.781,538.754,0.0
51751.0,STARLINK-3506,PAYLOAD,2024-02-20 11:09:39,15.08839989,0.0001562,53.2181,68.0391,100.9198,259.197,9.0883e-05,1.159e-05,0.0,0 STARLINK-3506,1 51751U 22016AP  24051.46503720  .00001159  00000-0  90883-4 0  9997,2 51751  53.2181  68.0391 0001562 100.9198 259.1970 15.08839989110746,6917.88,95.438,540.826,538.665,0.0
51751.0,STARLINK-3506,PAYLOAD,2024-02-20 17:31:11,15.08843011,0.0001452,53.2177,66.849,95.2733,264.8425,-5.3448e-06,-3.73e-06,0.0,0 STARLINK-3506,1 51751U 22016AP  24051.72999694 -.00000373  00000-0 -53448-5 0  9991,2 51751  53.2177  66.8490 0001452  95.2733 264.8425 15.08843011111904,6917.871,95.437,540.741,538.732,0.0
51751.0,STARLINK-3506,PAYLOAD,2024-02-21 01:28:08,15.08832617,0.0001558,53.2188,65.3627,94.6373,265.4797,5.2176e-05,5.42e-06,0.0,0 STARLINK-3506,1 51751U 22016AP  24052.06120434  .00000542  00000-0  52176-4 0  9999,2 51751  53.2188  65.3627 0001558  94.6373 265.4797 15.08832617111956,6917.903,95.438,540.846,538.69,0.0
51751.0,STARLINK-3506,PAYLOAD,2024-02-21 07:49:40,15.08839596,0.000162,53.2192,64.1734,94.5118,265.6059,9.3135e-05,1.195e-05,0.0,0 STARLINK-3506,1 51751U 22016AP  24052.32616006  .00001195  00000-0  93135-4 0  9998,2 51751  53.2192  64.1734 0001620  94.5118 265.6059 15.08839596111993,6917.882,95.438,540.867,538.626,0.0
51751.0,STARLINK-3506,PAYLOAD,2024-02-21 17:21:59,15.08834822,0.000164,53.2189,62.3891,87.9636,272.1544,7.5973e-05,9.21e-06,0.0,0 STARLINK-3506,1 51751U 22016AP  24052.72360471  .00000921  00000-0  75973-4 0  9990,2 51751  53.2189  62.3891 0001640  87.9636 272.1544 15.08834822110938,6917.896,95.438,540.896,538.627,0.0
51751.0,STARLINK-3506,PAYLOAD,2024-02-22 04:29:41,15.08833691,0.0001707,53.2194,60.3074,90.3965,269.7222,3.0615e-05,1.99e-06,0.0,0 STARLINK-3506,1 51751U 22016AP  24053.18728845  .00000199  00000-0  30615-4 0  9995,2 51751  53.2194  60.3074 0001707  90.3965 269.7222 15.08833691112123,6917.9,95.438,540.946,538.584,0.0
51751.0,STARLINK-3506,PAYLOAD,2024-02-22 06:05:04,15.08833396,0.0001623,53.2193,60.0111,91.1137,269.0041,2.4145e-05,9.6e-07,0.0,0 STARLINK-3506,1 51751U 22016AP  24053.25352906  .00000096  00000-0  24145-4 0  9991,2 51751  53.2193  60.0111 0001623  91.1137 269.0041 15.08833396111019,6917.901,95.438,540.888,538.643,0.0
51751.0,STARLINK-3506,PAYLOAD,2024-02-22 17:12:46,15.08842146,0.0001715,53.22,57.9295,91.6567,268.4622,2.0288e-05,3.5e-07,0.0,0 STARLINK-3506,1 51751U 22016AP  24053.71720448  .00000035  00000-0  20288-4 0  9999,2 51751  53.2200  57.9295 0001715  91.6567 268.4622 15.08842146112203,6917.874,95.437,540.925,538.552,0.0
51751.0,STARLINK-3506,PAYLOAD,2024-02-23 07:31:14,15.08845127,0.0001617,53.2194,55.254,89.7469,270.3708,0.00010061,1.314e-05,0.0,0 STARLINK-3506,1 51751U 22016AP  24054.31336128  .00001314  00000-0  10061-3 0  9992,2 51751  53.2194  55.2540 0001617  89.7469 270.3708 15.08845127111173,6917.865,95.437,540.848,538.611,0.0
51751.0,STARLINK-3506,PAYLOAD,2024-02-23 17:03:33,15.08844564,0.0001747,53.22,53.4672,79.1346,280.9842,0.00011031,1.468e-05,0.0,0 STARLINK-3506,1 51751U 22016AP  24054.71080189  .00001468  00000-0  11031-3 0  9997,2 51751  53.2200  53.4672 0001747  79.1346 280.9842 15.08844564111235,6917.866,95.437,540.94,538.523,0.0
51751.0,STARLINK-3506,PAYLOAD,2024-02-24 04:11:15,15.08835729,0.0001775,53.2205,51.3847,80.6815,279.4378,8.8854e-05,1.126e-05,0.0,0 STARLINK-3506,1 51751U 22016AP  24055.17448875  .00001126  00000-0  88854-4 0  9997,2 51751  53.2205  51.3847 0001775  80.6815 279.4378 15.08835729112422,6917.893,95.438,540.986,538.531,0.0
51751.0,STARLINK-3506,PAYLOAD,2024-02-24 08:57:24,15.08844728,0.0001434,53.2185,50.4956,85.7444,274.3712,0.00011711,1.577e-05,0.0,0 STARLINK-3506,1 51751U 22016AP  24055.37320305  .00001577  00000-0  11711-3 0  9993,2 51751  53.2185  50.4956 0001434  85.7444 274.3712 15.08844728112454,6917.866,95.437,540.723,538.739,0.0
51751.0,STARLINK-3506,PAYLOAD,2024-02-24 16:54:20,15.08844684,0.0001395,53.2183,49.0096,85.9019,274.2132,9.787e-05,1.27e-05,0.0,0 STARLINK-3506,1 51751U 22016AP  24055.70440351  .00001270  00000-0  97870-4 0  9995,2 51751  53.2183  49.0096 0001395  85.9019 274.2132 15.08844684111384,6917.866,95.437,540.696,538.766,0.0
51751.0,STARLINK-3506,PAYLOAD,2024-02-25 05:37:25,15.08852475,0.000134,53.218,46.6282,91.6999,268.4146,7.8764e-05,9.66e-06,0.0,0 STARLINK-3506,1 51751U 22016AP  24056.23431748  .00000966  00000-0  78764-4 0  9996,2 51751  53.2180  46.6282 0001340  91.6999 268.4146 15.08852475111468,6917.842,95.437,540.634,538.78,0.0
51751.0,STARLINK-3506,PAYLOAD,2024-02-25 16:45:07,15.08847687,0.0001335,53.2169,44.5493,78.8244,281.2898,5.9757e-05,6.63e-06,0.0,0 STARLINK-3506,1 51751U 22016AP  24056.69799910  .00000663  00000-0  59757-4 0  9999,2 51751  53.2169  44.5493 0001335  78.8244 281.2898 15.08847687112658,6917.857,95.437,540.645,538.798,0.0
